{"type": "FeatureCollection", "features": [ {"type": "Feature", "properties": {"norad_id": 66929, "name": "STARLINK-36169", "group": "last-30-days", "lat": -9.410810875852537, "lon": -23.68507952703187, "alt_km": 399.3434867184542, "timestamp": "2025-12-26T04:40:04.512889+00:00", "meta": {"OBJECT_NAME": "STARLINK-36169", "OBJECT_ID": "2025-286E", "EPOCH": "2025-12-25T22:00:01.999584", "MEAN_MOTION": 15.57981362, "ECCENTRICITY": 0.00016105, "INCLINATION": 53.1596, "RA_OF_ASC_NODE": 344.798, "ARG_OF_PERICENTER": 97.4791, "MEAN_ANOMALY": 132.4205, "EPHEMERIS_TYPE": 0, "CLASSIFICATION_TYPE": "U", "NORAD_CAT_ID": 66929, "ELEMENT_SET_NO": 999, "REV_AT_EPOCH": 410, "BSTAR": -0.029361804, "MEAN_MOTION_DOT": -0.01968859, "MEAN_MOTION_DDOT": 0}, "tle": {"line1": "1 66929U 25286E   25359.91668981 -.01968859  00000+0 -29362-1 0  9997", "line2": "2 66929  53.1596 344.7980 0001610  97.4791 132.4205 15.57981362  4102"}}, "geometry": {"type": "Point", "coordinates": [-23.68507952703187, -9.410810875852537]}}, {"type": "Feature", "properties": {"norad_id": 66930, "name": "STARLINK-36206", "group": "last-30-days", "lat": -7.887716291280142, "lon": -22.513925622506978, "alt_km": 399.11330624921084, "timestamp": "2025-12-26T04:40:04.512901+00:00", "meta": {"OBJECT_NAME": "STARLINK-36206", "OBJECT_ID": "2025-286F", "EPOCH": "2025-12-25T22:00:01.999584", "MEAN_MOTION": 15.57987076, "ECCENTRICITY": 0.000153, "INCLINATION": 53.1594, "RA_OF_ASC_NODE": 344.7931, "ARG_OF_PERICENTER": 97.4314, "MEAN_ANOMALY": 134.3799, "EPHEMERIS_TYPE": 0, "CLASSIFICATION_TYPE": "U", "NORAD_CAT_ID": 66930, "ELEMENT_SET_NO": 999, "REV_AT_EPOCH": 410, "BSTAR": -0.029435798, "MEAN_MOTION_DOT": -0.0197353, "MEAN_MOTION_DDOT": 0}, "tle": {"line1": "1 66930U 25286F   25359.91668981 -.01973530  00000+0 -29436-1 0  9993", "line2": "2 66930  53.1594 344.7931 0001530  97.4314 134.3799 15.57987076  4107"}}, "geometry": {"type": "Point", "coordinates": [-22.513925622506978, -7.887716291280142]}}, {"type": "Feature", "properties": {"norad_id": 66931, "name": "STARLINK-36130", "group": "last-30-days", "lat": -6.359889165264707, "lon": -21.348432958923187, "alt_km": 398.9136518996729, "timestamp": "2025-12-26T04:40:04.512911+00:00", "meta": {"OBJECT_NAME": "STARLINK-36130", "OBJECT_ID": "2025-286G", "EPOCH": "2025-12-25T22:00:01.999584", "MEAN_MOTION": 15.57982105, "ECCENTRICITY": 0.00015529, "INCLINATION": 53.1598, "RA_OF_ASC_NODE": 344.7899, "ARG_OF_PERICENTER": 97.2234, "MEAN_ANOMALY": 136.5107, "EPHEMERIS_TYPE": 0, "CLASSIFICATION_TYPE": "U", "NORAD_CAT_ID": 66931, "ELEMENT_SET_NO": 999, "REV_AT_EPOCH": 410, "BSTAR": -0.029395018, "MEAN_MOTION_DOT": -0.01970821, "MEAN_MOTION_DDOT": 0}, "tle": {"line1": "1 66931U 25286G   25359.91668981 -.01970821  00000+0 -29395-1 0  9998", "line2": "2 66931  53.1598 344.7899 0001552  97.2234 136.5107 15.57982105  4103"}}, "geometry": {"type": "Point", "coordinates": [-21.348432958923187, -6.359889165264707]}}, {"type": "Feature", "properties": {"norad_id": 66932, "name": "STARLINK-36177", "group": "last-30-days", "lat": -4.832554771554436, "lon": -20.19413543465569, "alt_km": 398.70981544200913, "timestamp": "2025-12-26T04:40:04.512921+00:00", "meta": {"OBJECT_NAME": "STARLINK-36177", "OBJECT_ID": "2025-286H", "EPOCH": "2025-12-25T22:00:01.999584", "MEAN_MOTION": 15.57986368, "ECCENTRICITY": 0.00015349, "INCLINATION": 53.1598, "RA_OF_ASC_NODE": 344.7849, "ARG_OF_PERICENTER": 98.9048, "MEAN_ANOMALY": 136.7392, "EPHEMERIS_TYPE": 0, "CLASSIFICATION_TYPE": "U", "NORAD_CAT_ID": 66932, "ELEMENT_SET_NO": 999, "REV_AT_EPOCH": 410, "BSTAR": -0.029394842, "MEAN_MOTION_DOT": -0.01971078, "MEAN_MOTION_DDOT": 0}, "tle": {"line1": "1 66932U 25286H   25359.91668981 -.01971078  00000+0 -29395-1 0  9994", "line2": "2 66932  53.1598 344.7849 0001534  98.9048 136.7392 15.57986368  4103"}}, "geometry": {"type": "Point", "coordinates": [-20.19413543465569, -4.832554771554436]}}, {"type": "Feature", "properties": {"norad_id": 66933, "name": "STARLINK-36157", "group": "last-30-days", "lat": -3.3006586708974983, "lon": -19.04229540587931, "alt_km": 398.5039883853369, "timestamp": "2025-12-26T04:40:04.512931+00:00", "meta": {"OBJECT_NAME": "STARLINK-36157", "OBJECT_ID": "2025-286J", "EPOCH": "2025-12-25T22:00:01.999584", "MEAN_MOTION": 15.57982792, "ECCENTRICITY": 0.00016082, "INCLINATION": 53.1597, "RA_OF_ASC_NODE": 344.7807, "ARG_OF_PERICENTER": 98.7681, "MEAN_ANOMALY": 138.797, "EPHEMERIS_TYPE": 0, "CLASSIFICATION_TYPE": "U", "NORAD_CAT_ID": 66933, "ELEMENT_SET_NO": 999, "REV_AT_EPOCH": 410, "BSTAR": -0.029356957, "MEAN_MOTION_DOT": -0.01968666, "MEAN_MOTION_DDOT": 0}, "tle": {"line1": "1 66933U 25286J   25359.91668981 -.01968666  00000+0 -29357-1 0  9992", "line2": "2 66933  53.1597 344.7807 0001608  98.7681 138.7970 15.57982792  4101"}}, "geometry": {"type": "Point", "coordinates": [-19.04229540587931, -3.3006586708974983]}}, {"type": "Feature", "properties": {"norad_id": 66934, "name": "STARLINK-36153", "group": "last-30-days", "lat": -1.7674069854032182, "lon": -17.892898047885147, "alt_km": 398.32251524081767, "timestamp": "2025-12-26T04:40:04.512941+00:00", "meta": {"OBJECT_NAME": "STARLINK-36153", "OBJECT_ID": "2025-286K", "EPOCH": "2025-12-25T22:00:01.999584", "MEAN_MOTION": 15.57983037, "ECCENTRICITY": 0.00016065, "INCLINATION": 53.1596, "RA_OF_ASC_NODE": 344.7776, "ARG_OF_PERICENTER": 101.2367, "MEAN_ANOMALY": 138.2465, "EPHEMERIS_TYPE": 0, "CLASSIFICATION_TYPE": "U", "NORAD_CAT_ID": 66934, "ELEMENT_SET_NO": 999, "REV_AT_EPOCH": 410, "BSTAR": -0.029411099, "MEAN_MOTION_DOT": -0.01971866, "MEAN_MOTION_DDOT": 0}, "tle": {"line1": "1 66934U 25286K   25359.91668981 -.01971866  00000+0 -29411-1 0  9990", "line2": "2 66934  53.1596 344.7776 0001606 101.2367 138.2465 15.57983037  4102"}}, "geometry": {"type": "Point", "coordinates": [-17.892898047885147, -1.7674069854032182]}}, {"type": "Feature", "properties": {"norad_id": 66935, "name": "STARLINK-36127", "group": "last-30-days", "lat": -0.23379291554214754, "lon": -16.747858333568523, "alt_km": 397.990937030062, "timestamp": "2025-12-26T04:40:04.512950+00:00", "meta": {"OBJECT_NAME": "STARLINK-36127", "OBJECT_ID": "2025-286L", "EPOCH": "2025-12-25T22:00:01.999584", "MEAN_MOTION": 15.57981992, "ECCENTRICITY": 0.0001545, "INCLINATION": 53.1596, "RA_OF_ASC_NODE": 344.7723, "ARG_OF_PERICENTER": 96.1544, "MEAN_ANOMALY": 145.2442, "EPHEMERIS_TYPE": 0, "CLASSIFICATION_TYPE": "U", "NORAD_CAT_ID": 66935, "ELEMENT_SET_NO": 999, "REV_AT_EPOCH": 410, "BSTAR": -0.029310627, "MEAN_MOTION_DOT": -0.01965842, "MEAN_MOTION_DDOT": 0}, "tle": {"line1": "1 66935U 25286L   25359.91668981 -.01965842  00000+0 -29311-1 0  9997", "line2": "2 66935  53.1596 344.7723 0001545  96.1544 145.2442 15.57981992  4107"}}, "geometry": {"type": "Point", "coordinates": [-16.747858333568523, -0.23379291554214754]}}, {"type": "Feature", "properties": {"norad_id": 66936, "name": "STARLINK-36160", "group": "last-30-days", "lat": 1.2985685626316037, "lon": -15.602274116071486, "alt_km": 397.8280630791505, "timestamp": "2025-12-26T04:40:04.512962+00:00", "meta": {"OBJECT_NAME": "STARLINK-36160", "OBJECT_ID": "2025-286M", "EPOCH": "2025-12-25T22:00:01.999584", "MEAN_MOTION": 15.5797992, "ECCENTRICITY": 0.00016508, "INCLINATION": 53.1592, "RA_OF_ASC_NODE": 344.7688, "ARG_OF_PERICENTER": 99.9563, "MEAN_ANOMALY": 143.3596, "EPHEMERIS_TYPE": 0, "CLASSIFICATION_TYPE": "U", "NORAD_CAT_ID": 66936, "ELEMENT_SET_NO": 999, "REV_AT_EPOCH": 410, "BSTAR": -0.029271851, "MEAN_MOTION_DOT": -0.01963499, "MEAN_MOTION_DDOT": 0}, "tle": {"line1": "1 66936U 25286M   25359.91668981 -.01963499  00000+0 -29272-1 0  9990", "line2": "2 66936  53.1592 344.7688 0001650  99.9563 143.3596 15.57979920  4100"}}, "geometry": {"type": "Point", "coordinates": [-15.602274116071486, 1.2985685626316037]}}, {"type": "Feature", "properties": {"norad_id": 66937, "name": "STARLINK-36165", "group": "last-30-days", "lat": 2.8328727153274933, "lon": -14.454308887513651, "alt_km": 397.64952339387855, "timestamp": "2025-12-26T04:40:04.512975+00:00", "meta": {"OBJECT_NAME": "STARLINK-36165", "OBJECT_ID": "2025-286N", "EPOCH": "2025-12-25T22:00:01.999584", "MEAN_MOTION": 15.57979111, "ECCENTRICITY": 0.00016254, "INCLINATION": 53.1588, "RA_OF_ASC_NODE": 344.7644, "ARG_OF_PERICENTER": 103.7289, "MEAN_ANOMALY": 141.5053, "EPHEMERIS_TYPE": 0, "CLASSIFICATION_TYPE": "U", "NORAD_CAT_ID": 66937, "ELEMENT_SET_NO": 999, "REV_AT_EPOCH": 410, "BSTAR": -0.029270624, "MEAN_MOTION_DOT": -0.01963356, "MEAN_MOTION_DDOT": 0}, "tle": {"line1": "1 66937U 25286N   25359.91668981 -.01963356  00000+0 -29271-1 0  9992", "line2": "2 66937  53.1588 344.7644 0001625 103.7289 141.5053 15.57979111  4109"}}, "geometry": {"type": "Point", "coordinates": [-14.454308887513651, 2.8328727153274933]}}, {"type": "Feature", "properties": {"norad_id": 66938, "name": "STARLINK-36155", "group": "last-30-days", "lat": 4.366997014632904, "lon": -13.302324160776452, "alt_km": 397.2891288810297, "timestamp": "2025-12-26T04:40:04.512985+00:00", "meta": {"OBJECT_NAME": "STARLINK-36155", "OBJECT_ID": "2025-286P", "EPOCH": "2025-12-25T22:00:01.999584", "MEAN_MOTION": 15.57983829, "ECCENTRICITY": 0.00014632, "INCLINATION": 53.1595, "RA_OF_ASC_NODE": 344.7603, "ARG_OF_PERICENTER": 97.2759, "MEAN_ANOMALY": 149.8738, "EPHEMERIS_TYPE": 0, "CLASSIFICATION_TYPE": "U", "NORAD_CAT_ID": 66938, "ELEMENT_SET_NO": 999, "REV_AT_EPOCH": 410, "BSTAR": -0.02940123, "MEAN_MOTION_DOT": -0.01971236, "MEAN_MOTION_DDOT": 0}, "tle": {"line1": "1 66938U 25286P   25359.91668981 -.01971236  00000+0 -29401-1 0  9994", "line2": "2 66938  53.1595 344.7603 0001463  97.2759 149.8738 15.57983829  4104"}}, "geometry": {"type": "Point", "coordinates": [-13.302324160776452, 4.366997014632904]}}]}